ONEWEB-0578             
1 56067U 23043X   25334.62728812  .00000076  00000+0  15196-3 0  9996
2 56067  87.9205 283.5783 0001602  77.2817 282.8496 13.21827544132006
ONEWEB-0579             
1 56068U 23043Y   25334.61740072  .00000042  00000+0  71233-4 0  9996
2 56068  87.9208 283.5675 0002098  79.3806 280.7565 13.21829055132015
ONEWEB-0581             
1 56069U 23043Z   25334.57021210  .00000130  00000+0  30659-3 0  9992
2 56069  87.9036 268.3333 0001835  90.8854 269.2487 13.16593835132828
ONEWEB-0609             
1 56070U 23043AA  25334.59808304  .00000127  00000+0  30256-3 0  9992
2 56070  87.8984 298.8445 0001864  79.4107 280.7234 13.15547892130321
ONEWEB-0613             
1 56071U 23043AB  25334.44121668  .00000173  00000+0  42577-3 0  9998
2 56071  87.8980 298.8882 0002101  78.5651 281.5716 13.15548703130306
ONEWEB-0630             
1 56072U 23043AC  25334.43645862  .00000226  00000+0  56714-3 0  9992
2 56072  87.8977 298.8609 0002131  79.6657 280.4714 13.15548563130299
ONEWEB-0632             
1 56073U 23043AD  25334.43169814  .00000188  00000+0  46439-3 0  9991
2 56073  87.8974 298.8800 0001914  88.5498 271.5852 13.15548958130292
ONEWEB-0633             
1 56074U 23043AE  25334.42536531  .00000213  00000+0  53068-3 0  9990
2 56074  87.8973 298.8444 0002153  74.7869 285.3499 13.15547911130277
